start=new Date('2022-01-13T00:00:00.000Z').valueOf();
sats=[{"MEAN_MOTION_DDOT":"0.0000000000000","MEAN_ANOMALY":"280.7470","LAUNCH_DATE":"2020-04-22","BSTAR":"-0.00008699400000","MEAN_ELEMENT_THEORY":"SGP4","SITE":"AFETR","REV_AT_EPOCH":"9669","PERIOD":"95.593","REF_FRAME":"TEME","MEAN_MOTION":"15.06391207","FILE":"3270709","OBJECT_ID":"2020-025AM","EPOCH":"2022-01-12T12:37:48.909792","PERIAPSIS":"546.255","RCS_SIZE":"LARGE","CLASSIFICATION_TYPE":"U","ELEMENT_SET_NO":"999","RA_OF_ASC_NODE":"57.4387","COUNTRY_CODE":"US","MEAN_MOTION_DOT":"-0.00001577","INCLINATION":"53.0552","EPHEMERIS_TYPE":"0","OBJECT_TYPE":"PAYLOAD","OBJECT_NAME":"STARLINK-1358","NORAD_CAT_ID":"45566","ECCENTRICITY":"0.00014230","GP_ID":"193732211","APOAPSIS":"548.226","TLE_LINE2":"2 45566  53.0552  57.4387 0001423  79.3679 280.7470 15.06391207 96695","SEMIMAJOR_AXIS":"6925.376","TIME_SYSTEM":"UTC","CENTER_NAME":"EARTH","ARG_OF_PERICENTER":"79.3679","TLE_LINE1":"1 45566U 20025AM  22012.52626053 -.00001577  00000-0 -86994-4 0  9993","DECAY_DATE":null},{"ELEMENT_SET_NO":"999","RCS_SIZE":"LARGE","CLASSIFICATION_TYPE":"U","MEAN_MOTION_DOT":"0.00000087","INCLINATION":"53.0550","OBJECT_TYPE":"PAYLOAD","NORAD_CAT_ID":"45567","OBJECT_NAME":"STARLINK-1361","EPHEMERIS_TYPE":"0","ECCENTRICITY":"0.00014600","GP_ID":"193732961","APOAPSIS":"548.221","RA_OF_ASC_NODE":"57.3774","COUNTRY_CODE":"US","SEMIMAJOR_AXIS":"6925.345","TIME_SYSTEM":"UTC","TLE_LINE2":"2 45567  53.0550  57.3774 0001460  85.1562 274.9594 15.06401161 96705","DECAY_DATE":null,"TLE_LINE1":"1 45567U 20025AN  22012.53730972  .00000087  00000-0  24739-4 0  9993","CENTER_NAME":"EARTH","ARG_OF_PERICENTER":"85.1562","MEAN_ANOMALY":"274.9594","MEAN_MOTION_DDOT":"0.0000000000000","BSTAR":"0.00002473900000","MEAN_ELEMENT_THEORY":"SGP4","SITE":"AFETR","LAUNCH_DATE":"2020-04-22","PERIOD":"95.592","REF_FRAME":"TEME","MEAN_MOTION":"15.06401161","REV_AT_EPOCH":"9670","EPOCH":"2022-01-12T12:53:43.559808","PERIAPSIS":"546.199","FILE":"3270709","OBJECT_ID":"2020-025AN"},{"ELEMENT_SET_NO":"999","CLASSIFICATION_TYPE":"U","RCS_SIZE":"LARGE","APOAPSIS":"548.500","ECCENTRICITY":"0.00018520","GP_ID":"193731208","EPHEMERIS_TYPE":"0","OBJECT_TYPE":"PAYLOAD","OBJECT_NAME":"STARLINK-1363","NORAD_CAT_ID":"45568","INCLINATION":"53.0567","MEAN_MOTION_DOT":"-0.00001856","COUNTRY_CODE":"US","RA_OF_ASC_NODE":"57.4228","SEMIMAJOR_AXIS":"6925.352","TIME_SYSTEM":"UTC","TLE_LINE2":"2 45568  53.0567  57.4228 0001852 101.5167 258.6030 15.06398878 96690","DECAY_DATE":null,"TLE_LINE1":"1 45568U 20025AP  22012.52899936 -.00001856  00000-0 -10569-3 0  9991","ARG_OF_PERICENTER":"101.5167","CENTER_NAME":"EARTH","MEAN_ANOMALY":"258.6030","MEAN_MOTION_DDOT":"0.0000000000000","SITE":"AFETR","MEAN_ELEMENT_THEORY":"SGP4","BSTAR":"-0.00010569000000","LAUNCH_DATE":"2020-04-22","MEAN_MOTION":"15.06398878","REF_FRAME":"TEME","PERIOD":"95.592","REV_AT_EPOCH":"9669","PERIAPSIS":"545.934","EPOCH":"2022-01-12T12:41:45.544704","OBJECT_ID":"2020-025AP","FILE":"3270709"},{"TLE_LINE2":"2 45569  53.0551  57.6638 0001315  72.0961 288.0172 15.06397126 96687","SEMIMAJOR_AXIS":"6925.357","TIME_SYSTEM":"UTC","CENTER_NAME":"EARTH","ARG_OF_PERICENTER":"72.0961","TLE_LINE1":"1 45569U 20025AQ  22012.47465952 -.00001325  00000-0 -70109-4 0  9991","DECAY_DATE":null,"RCS_SIZE":"LARGE","CLASSIFICATION_TYPE":"U","ELEMENT_SET_NO":"999","RA_OF_ASC_NODE":"57.6638","COUNTRY_CODE":"US","MEAN_MOTION_DOT":"-0.00001325","INCLINATION":"53.0551","OBJECT_TYPE":"PAYLOAD","EPHEMERIS_TYPE":"0","OBJECT_NAME":"STARLINK-1366","NORAD_CAT_ID":"45569","ECCENTRICITY":"0.00013150","GP_ID":"193731460","APOAPSIS":"548.133","REV_AT_EPOCH":"9668","PERIOD":"95.592","REF_FRAME":"TEME","MEAN_MOTION":"15.06397126","FILE":"3270709","OBJECT_ID":"2020-025AQ","EPOCH":"2022-01-12T11:23:30.582528","PERIAPSIS":"546.312","MEAN_MOTION_DDOT":"0.0000000000000","MEAN_ANOMALY":"288.0172","LAUNCH_DATE":"2020-04-22","BSTAR":"-0.00007010900000","MEAN_ELEMENT_THEORY":"SGP4","SITE":"AFETR"},{"FILE":"3270709","OBJECT_ID":"2020-025AR","EPOCH":"2022-01-12T12:48:24.825024","PERIAPSIS":"546.376","REV_AT_EPOCH":"9669","REF_FRAME":"TEME","PERIOD":"95.592","MEAN_MOTION":"15.06409049","LAUNCH_DATE":"2020-04-22","MEAN_ELEMENT_THEORY":"SGP4","BSTAR":"-0.00006519600000","SITE":"AFETR","MEAN_MOTION_DDOT":"0.0000000000000","MEAN_ANOMALY":"295.2234","CENTER_NAME":"EARTH","ARG_OF_PERICENTER":"64.8876","TLE_LINE1":"1 45570U 20025AR  22012.53362066 -.00001253  00000-0 -65196-4 0  9992","DECAY_DATE":null,"TLE_LINE2":"2 45570  53.0543  57.3966 0001170  64.8876 295.2234 15.06409049 96692","SEMIMAJOR_AXIS":"6925.321","TIME_SYSTEM":"UTC","RA_OF_ASC_NODE":"57.3966","COUNTRY_CODE":"US","EPHEMERIS_TYPE":"0","OBJECT_TYPE":"PAYLOAD","OBJECT_NAME":"STARLINK-1376","NORAD_CAT_ID":"45570","INCLINATION":"53.0543","MEAN_MOTION_DOT":"-0.00001253","APOAPSIS":"547.996","GP_ID":"193732711","ECCENTRICITY":"0.00011700","RCS_SIZE":"LARGE","CLASSIFICATION_TYPE":"U","ELEMENT_SET_NO":"999"},{"DECAY_DATE":null,"TLE_LINE1":"1 45571U 20025AS  22012.41659340 -.00000152  00000-0  86822-5 0  9990","ARG_OF_PERICENTER":"72.8892","CENTER_NAME":"EARTH","SEMIMAJOR_AXIS":"6925.342","TIME_SYSTEM":"UTC","TLE_LINE2":"2 45571  53.0556  47.9345 0001543  72.8892 287.2266 15.06401979 96830","ECCENTRICITY":"0.00015430","GP_ID":"193732462","APOAPSIS":"548.276","INCLINATION":"53.0556","MEAN_MOTION_DOT":"-0.00000152","OBJECT_TYPE":"PAYLOAD","OBJECT_NAME":"STARLINK-1261","EPHEMERIS_TYPE":"0","NORAD_CAT_ID":"45571","COUNTRY_CODE":"US","RA_OF_ASC_NODE":"47.9345","ELEMENT_SET_NO":"999","CLASSIFICATION_TYPE":"U","RCS_SIZE":"LARGE","PERIAPSIS":"546.139","EPOCH":"2022-01-12T09:59:53.669760","OBJECT_ID":"2020-025AS","FILE":"3270709","MEAN_MOTION":"15.06401979","PERIOD":"95.592","REF_FRAME":"TEME","REV_AT_EPOCH":"9683","SITE":"AFETR","BSTAR":"0.00000868220000","MEAN_ELEMENT_THEORY":"SGP4","LAUNCH_DATE":"2020-04-22","MEAN_ANOMALY":"287.2266","MEAN_MOTION_DDOT":"0.0000000000000"},{"RA_OF_ASC_NODE":"47.9685","COUNTRY_CODE":"US","OBJECT_TYPE":"PAYLOAD","OBJECT_NAME":"STARLINK-1320","NORAD_CAT_ID":"45572","EPHEMERIS_TYPE":"0","INCLINATION":"53.0558","MEAN_MOTION_DOT":"-0.00000313","APOAPSIS":"548.248","ECCENTRICITY":"0.00014320","GP_ID":"193731708","RCS_SIZE":"LARGE","CLASSIFICATION_TYPE":"U","ELEMENT_SET_NO":"999","CENTER_NAME":"EARTH","ARG_OF_PERICENTER":"79.2240","DECAY_DATE":null,"TLE_LINE1":"1 45572U 20025AT  22012.40924152 -.00000313  00000-0 -21093-5 0  9995","TLE_LINE2":"2 45572  53.0558  47.9685 0001432  79.2240 280.8910 15.06386132 96822","SEMIMAJOR_AXIS":"6925.391","TIME_SYSTEM":"UTC","LAUNCH_DATE":"2020-04-22","MEAN_ELEMENT_THEORY":"SGP4","BSTAR":"-0.00000210930000","SITE":"AFETR","MEAN_MOTION_DDOT":"0.0000000000000","MEAN_ANOMALY":"280.8910","FILE":"3270709","OBJECT_ID":"2020-025AT","EPOCH":"2022-01-12T09:49:18.467328","PERIAPSIS":"546.264","REV_AT_EPOCH":"9682","REF_FRAME":"TEME","PERIOD":"95.593","MEAN_MOTION":"15.06386132"},{"MEAN_ANOMALY":"288.5918","MEAN_MOTION_DDOT":"0.0000000000000","SITE":"AFETR","BSTAR":"0.00002622900000","MEAN_ELEMENT_THEORY":"SGP4","LAUNCH_DATE":"2020-04-22","MEAN_MOTION":"15.06397211","PERIOD":"95.592","REF_FRAME":"TEME","REV_AT_EPOCH":"9653","PERIAPSIS":"546.242","EPOCH":"2022-01-12T12:28:30.936000","OBJECT_ID":"2020-025AU","FILE":"3270709","ELEMENT_SET_NO":"999","CLASSIFICATION_TYPE":"U","RCS_SIZE":"LARGE","GP_ID":"193731960","ECCENTRICITY":"0.00014150","APOAPSIS":"548.202","INCLINATION":"53.0558","MEAN_MOTION_DOT":"0.00000109","OBJECT_TYPE":"PAYLOAD","OBJECT_NAME":"STARLINK-1321","EPHEMERIS_TYPE":"0","NORAD_CAT_ID":"45573","COUNTRY_CODE":"US","RA_OF_ASC_NODE":"47.4627","SEMIMAJOR_AXIS":"6925.357","TIME_SYSTEM":"UTC","TLE_LINE2":"2 45573  53.0558  47.4627 0001415  71.5225 288.5918 15.06397211 96534","DECAY_DATE":null,"TLE_LINE1":"1 45573U 20025AU  22012.51980250  .00000109  00000-0  26229-4 0  9995","ARG_OF_PERICENTER":"71.5225","CENTER_NAME":"EARTH"},{"BSTAR":"0.00001176100000","MEAN_ELEMENT_THEORY":"SGP4","SITE":"AFETR","LAUNCH_DATE":"2020-04-22","MEAN_ANOMALY":"286.6527","MEAN_MOTION_DDOT":"0.0000000000000","EPOCH":"2022-01-12T11:30:07.658784","PERIAPSIS":"546.157","FILE":"3270709","OBJECT_ID":"2020-025AV","PERIOD":"95.592","REF_FRAME":"TEME","MEAN_MOTION":"15.06401635","REV_AT_EPOCH":"9684","MEAN_MOTION_DOT":"-0.00000106","INCLINATION":"53.0561","OBJECT_TYPE":"PAYLOAD","EPHEMERIS_TYPE":"0","NORAD_CAT_ID":"45574","OBJECT_NAME":"STARLINK-1324","GP_ID":"193732212","ECCENTRICITY":"0.00015190","APOAPSIS":"548.261","RA_OF_ASC_NODE":"47.6500","COUNTRY_CODE":"US","ELEMENT_SET_NO":"999","RCS_SIZE":"LARGE","CLASSIFICATION_TYPE":"U","TLE_LINE1":"1 45574U 20025AV  22012.47925531 -.00000106  00000-0  11761-4 0  9995","DECAY_DATE":null,"CENTER_NAME":"EARTH","ARG_OF_PERICENTER":"73.4629","SEMIMAJOR_AXIS":"6925.344","TIME_SYSTEM":"UTC","TLE_LINE2":"2 45574  53.0561  47.6500 0001519  73.4629 286.6527 15.06401635 96840"},{"TLE_LINE2":"2 45575  53.0019  42.6411 0001445  82.1339 277.9814 15.09279410 96881","SEMIMAJOR_AXIS":"6916.538","TIME_SYSTEM":"UTC","CENTER_NAME":"EARTH","ARG_OF_PERICENTER":"82.1339","DECAY_DATE":null,"TLE_LINE1":"1 45575U 20025AW  22012.44905801  .00004450  00000-0  29403-3 0  9997","RCS_SIZE":"LARGE","CLASSIFICATION_TYPE":"U","ELEMENT_SET_NO":"999","RA_OF_ASC_NODE":"42.6411","COUNTRY_CODE":"US","OBJECT_TYPE":"PAYLOAD","OBJECT_NAME":"STARLINK-1326","EPHEMERIS_TYPE":"0","NORAD_CAT_ID":"45575","MEAN_MOTION_DOT":"0.00004450","INCLINATION":"53.0019","APOAPSIS":"539.402","GP_ID":"193732962","ECCENTRICITY":"0.00014450","REV_AT_EPOCH":"9688","REF_FRAME":"TEME","PERIOD":"95.410","MEAN_MOTION":"15.09279410","FILE":"3270709","OBJECT_ID":"2020-025AW","EPOCH":"2022-01-12T10:46:38.612064","PERIAPSIS":"537.403","MEAN_MOTION_DDOT":"0.0000000000000","MEAN_ANOMALY":"277.9814","LAUNCH_DATE":"2020-04-22","MEAN_ELEMENT_THEORY":"SGP4","BSTAR":"0.00029403000000","SITE":"AFETR"}];
